[{"OBJECT_NAME":"QIANFAN-103","OBJECT_ID":"2025-233N","EPOCH":"2026-03-05T22:32:19.618944","MEAN_MOTION":13.5100614,"ECCENTRICITY":0.00019143,"INCLINATION":88.9937,"RA_OF_ASC_NODE":53.6284,"ARG_OF_PERICENTER":91.5874,"MEAN_ANOMALY":268.5497,"EPHEMERIS_TYPE":0,"CLASSIFICATION_TYPE":"U","NORAD_CAT_ID":66045,"ELEMENT_SET_NO":999,"REV_AT_EPOCH":1924,"BSTAR":1.4090044e-5,"MEAN_MOTION_DOT":2.1e-7,"MEAN_MOTION_DDOT":0},{"OBJECT_NAME":"QIANFAN-104","OBJECT_ID":"2025-233P","EPOCH":"2026-03-05T22:37:56.448480","MEAN_MOTION":13.51010241,"ECCENTRICITY":0.00020896,"INCLINATION":88.9942,"RA_OF_ASC_NODE":53.5255,"ARG_OF_PERICENTER":85.7126,"MEAN_ANOMALY":274.4264,"EPHEMERIS_TYPE":0,"CLASSIFICATION_TYPE":"U","NORAD_CAT_ID":66046,"ELEMENT_SET_NO":999,"REV_AT_EPOCH":1929,"BSTAR":2.9225664e-5,"MEAN_MOTION_DOT":3.1e-7,"MEAN_MOTION_DDOT":0},{"OBJECT_NAME":"QIANFAN-105","OBJECT_ID":"2025-233Q","EPOCH":"2026-03-05T22:49:42.765024","MEAN_MOTION":13.50981497,"ECCENTRICITY":0.0002051,"INCLINATION":88.9955,"RA_OF_ASC_NODE":53.3539,"ARG_OF_PERICENTER":92.2802,"MEAN_ANOMALY":267.8584,"EPHEMERIS_TYPE":0,"CLASSIFICATION_TYPE":"U","NORAD_CAT_ID":66047,"ELEMENT_SET_NO":999,"REV_AT_EPOCH":1940,"BSTAR":3.1552957e-5,"MEAN_MOTION_DOT":3.2e-7,"MEAN_MOTION_DDOT":0},{"OBJECT_NAME":"QIANFAN-106","OBJECT_ID":"2025-233R","EPOCH":"2026-03-05T22:44:06.548064","MEAN_MOTION":13.51005194,"ECCENTRICITY":0.00023791,"INCLINATION":88.9924,"RA_OF_ASC_NODE":53.5997,"ARG_OF_PERICENTER":85.7215,"MEAN_ANOMALY":274.4208,"EPHEMERIS_TYPE":0,"CLASSIFICATION_TYPE":"U","NORAD_CAT_ID":66048,"ELEMENT_SET_NO":999,"REV_AT_EPOCH":1925,"BSTAR":2.4475365e-5,"MEAN_MOTION_DOT":2.8e-7,"MEAN_MOTION_DDOT":0},{"OBJECT_NAME":"QIANFAN-107","OBJECT_ID":"2025-233S","EPOCH":"2026-03-05T22:56:00.190464","MEAN_MOTION":13.51003253,"ECCENTRICITY":0.00019398,"INCLINATION":88.9939,"RA_OF_ASC_NODE":53.615,"ARG_OF_PERICENTER":90.7632,"MEAN_ANOMALY":269.3741,"EPHEMERIS_TYPE":0,"CLASSIFICATION_TYPE":"U","NORAD_CAT_ID":66049,"ELEMENT_SET_NO":999,"REV_AT_EPOCH":1925,"BSTAR":3.7874513e-5,"MEAN_MOTION_DOT":3.6e-7,"MEAN_MOTION_DDOT":0},{"OBJECT_NAME":"QIANFAN-108","OBJECT_ID":"2025-233T","EPOCH":"2026-03-05T23:01:54.778656","MEAN_MOTION":13.51004732,"ECCENTRICITY":0.0002335,"INCLINATION":88.9932,"RA_OF_ASC_NODE":53.6096,"ARG_OF_PERICENTER":85.3797,"MEAN_ANOMALY":274.7621,"EPHEMERIS_TYPE":0,"CLASSIFICATION_TYPE":"U","NORAD_CAT_ID":66050,"ELEMENT_SET_NO":999,"REV_AT_EPOCH":1925,"BSTAR":2.368209e-5,"MEAN_MOTION_DOT":2.7e-7,"MEAN_MOTION_DDOT":0}]
