QIANFAN-103             
1 66045U 25233N   26064.93911596  .00000021  00000+0  14090-4 0  9997
2 66045  88.9937  53.6284 0001914  91.5874 268.5497 13.51006140 19242
QIANFAN-104             
1 66046U 25233P   26064.94301445  .00000031  00000+0  29226-4 0  9993
2 66046  88.9942  53.5255 0002089  85.7126 274.4264 13.51010241 19295
QIANFAN-105             
1 66047U 25233Q   26064.95118941  .00000032  00000+0  31553-4 0  9999
2 66047  88.9955  53.3539 0002051  92.2802 267.8584 13.50981497 19409
QIANFAN-106             
1 66048U 25233R   26064.94729801  .00000028  00000+0  24475-4 0  9992
2 66048  88.9924  53.5997 0002379  85.7215 274.4208 13.51005194 19256
QIANFAN-107             
1 66049U 25233S   26064.95555776  .00000036  00000+0  37875-4 0  9999
2 66049  88.9939  53.6150 0001939  90.7632 269.3741 13.51003253 19254
QIANFAN-108             
1 66050U 25233T   26064.95966179  .00000027  00000+0  23682-4 0  9995
2 66050  88.9932  53.6096 0002335  85.3797 274.7621 13.51004732 19251
